NORAD_CAT_ID,OBJECT_NAME,OBJECT_TYPE,EPOCH,MEAN_MOTION,ECCENTRICITY,INCLINATION,RA_OF_ASC_NODE,ARG_OF_PERICENTER,MEAN_ANOMALY,BSTAR,MEAN_MOTION_DOT,MEAN_MOTION_DDOT,TLE_LINE0,TLE_LINE1,TLE_LINE2,SEMIMAJOR_AXIS,PERIOD,APOGEE,PERIGEE,DECAYED
53858.0,STARLINK-4798,PAYLOAD,2022-10-26 14:00:01,15.73244922,0.0001561,53.2142,72.9852,36.68,272.5597,-0.00011015,-0.0001608,0.0,0 STARLINK-4798,1 53858U 22114AS  22299.58334491 -.00016080  00000-0 -11015-3 0  9998,2 53858  53.2142  72.9852 0001561  36.6800 272.5597 15.73244922  6481,6727.767,91.531,350.682,348.582,0.0
53858.0,STARLINK-4798,PAYLOAD,2022-10-26 22:00:00,15.7324185,0.0001751,53.2143,71.3361,32.7232,5.4919,-0.00033213,-0.00047059,0.0,0 STARLINK-4798,1 53858U 22114AS  22299.91667824 -.00047059  00000-0 -33213-3 0  9998,2 53858  53.2143  71.3361 0001751  32.7232   5.4919 15.73241850  1301,6727.776,91.531,350.819,348.463,0.0
53858.0,STARLINK-4798,PAYLOAD,2022-10-27 14:00:01,15.73185481,0.0001927,53.2145,68.0366,37.0153,179.1868,0.00020995,0.00028929,0.0,0 STARLINK-4798,1 53858U 22114AS  22300.58335648  .00028929  00000-0  20995-3 0  9996,2 53858  53.2145  68.0366 0001927  37.0153 179.1868 15.73185481  1305,6727.937,91.534,351.098,348.505,0.0
53858.0,STARLINK-4798,PAYLOAD,2022-10-27 22:00:00,15.73250918,0.000197,53.2139,66.3874,33.5879,271.4672,5.129300000000001e-05,6.599e-05,0.0,0 STARLINK-4798,1 53858U 22114AS  22300.91667824  .00006599  00000-0  51293-4 0  9992,2 53858  53.2139  66.3874 0001970  33.5879 271.4672 15.73250918  1304,6727.75,91.53,350.94,348.29,0.0
53858.0,STARLINK-4798,PAYLOAD,2022-10-28 00:00:02,15.73282588,0.000192,53.214,65.9744,34.9293,22.4299,-0.00042993,-0.00060742,0.0,0 STARLINK-4798,1 53858U 22114AS  22301.00002315 -.00060742  00000-0 -42993-3 0  9999,2 53858  53.2140  65.9744 0001920  34.9293  22.4299 15.73282588  6703,6727.66,91.528,350.816,348.233,0.0
53858.0,STARLINK-4798,PAYLOAD,2022-10-28 14:00:01,15.73199008,0.0001938,53.2144,63.0881,32.3769,90.7032,-0.00032621,-0.00046153,0.0,0 STARLINK-4798,1 53858U 22114AS  22301.58335648 -.00046153  00000-0 -32621-3 0  9997,2 53858  53.2144  63.0881 0001938  32.3769  90.7032 15.73199008  1305,6727.898,91.533,351.06699999999995,348.459,0.0
53858.0,STARLINK-4798,PAYLOAD,2022-10-28 22:00:01,15.73221595,0.0002044,53.2144,61.4388,29.582,182.3916,-0.00038203,-0.00053948,0.0,0 STARLINK-4798,1 53858U 22114AS  22301.91668981 -.00053948  00000-0 -38203-3 0  9995,2 53858  53.2144  61.4388 0002044  29.5820 182.3916 15.73221595  1300,6727.834,91.532,351.074,348.3230000000001,0.0
53858.0,STARLINK-4798,PAYLOAD,2022-10-29 08:00:01,15.73204555,0.0001989,53.2148,59.3754,35.1691,17.8973,-0.00012737,-0.00018462,0.0,0 STARLINK-4798,1 53858U 22114AS  22302.33334491 -.00018462  00000-0 -12737-3 0  9994,2 53858  53.2148  59.3754 0001989  35.1691  17.8973 15.73204555  6917,6727.882,91.533,351.085,348.409,0.0
53858.0,STARLINK-4798,PAYLOAD,2022-10-29 12:00:00,15.73202539,0.00021,53.2146,58.5517,31.4242,246.1349,0.00028887,0.00040121,0.0,0 STARLINK-4798,1 53858U 22114AS  22302.50001157  .00040121  00000-0  28887-3 0  9991,2 53858  53.2146  58.5517 0002100  31.4242 246.1349 15.73202539  1302,6727.888000000001,91.533,351.166,348.34,0.0
53858.0,STARLINK-4798,PAYLOAD,2022-10-29 22:00:01,15.73259917,0.0002118,53.2139,56.4899,23.2919,95.516,-0.00017644,-0.00025375,0.0,0 STARLINK-4798,1 53858U 22114AS  22302.91668981 -.00025375  00000-0 -17644-3 0  9995,2 53858  53.2139  56.4899 0002118  23.2919  95.5160 15.73259917  1302,6727.724,91.53,351.014,348.164,0.0
53858.0,STARLINK-4798,PAYLOAD,2022-10-30 00:00:00,15.73260627,0.0002019,53.2139,56.077,23.0035,207.9873,-0.00025447,-0.00036277,0.0,0 STARLINK-4798,1 53858U 22114AS  22303.00001157 -.00036277  00000-0 -25447-3 0  9995,2 53858  53.2139  56.0770 0002019  23.0035 207.9873 15.73260627  7028,6727.722,91.53,350.946,348.22900000000016,0.0
53858.0,STARLINK-4798,PAYLOAD,2022-10-30 14:00:01,15.73221923,0.0002138,53.2141,53.1912,22.365,274.2373,-0.0003094,-0.00043863,0.0,0 STARLINK-4798,1 53858U 22114AS  22303.58334491 -.00043863  00000-0 -30940-3 0  9991,2 53858  53.2141  53.1912 0002138  22.3650 274.2373 15.73221923  1307,6727.833000000001,91.532,351.136,348.259,0.0
53858.0,STARLINK-4798,PAYLOAD,2022-10-30 22:00:01,15.73204844,0.0002241,53.2142,51.5412,20.359,5.247000000000001,-0.00030739,-0.00043553,0.0,0 STARLINK-4798,1 53858U 22114AS  22303.91668981 -.00043553  00000-0 -30739-3 0  9994,2 53858  53.2142  51.5412 0002241  20.3590   5.2470 15.73204844  1304,6727.880999999999,91.533,351.254,348.23900000000015,0.0
53858.0,STARLINK-4798,PAYLOAD,2022-10-31 14:00:01,15.73183734,0.0002548,53.2142,48.2424,28.0602,175.3074,-2.1647e-05,-3.657e-05,0.0,0 STARLINK-4798,1 53858U 22114AS  22304.58334491 -.00003657  00000-0 -21647-4 0  9994,2 53858  53.2142  48.2424 0002548  28.0602 175.3074 15.73183734  1302,6727.941999999999,91.534,351.521,348.092,0.0
53858.0,STARLINK-4798,PAYLOAD,2022-10-31 22:00:01,15.73205575,0.0002456,53.2136,46.5921,24.4152,267.9285,-0.00029311,-0.00041571,0.0,0 STARLINK-4798,1 53858U 22114AS  22304.91668981 -.00041571  00000-0 -29311-3 0  9997,2 53858  53.2136  46.5921 0002456  24.4152 267.9285 15.73205575  1306,6727.879,91.533,351.397,348.092,0.0
53858.0,STARLINK-4798,PAYLOAD,2022-11-01 00:00:02,15.7320272,0.0002355999999999,53.2138,46.1792,23.6644,20.9099,-0.00030702,-0.00043498,0.0,0 STARLINK-4798,1 53858U 22114AS  22305.00002315 -.00043498  00000-0 -30702-3 0  9997,2 53858  53.2138  46.1792 0002356  23.6644  20.9099 15.73202720  7334,6727.887,91.533,351.338,348.167,0.0
53858.0,STARLINK-4798,PAYLOAD,2022-11-01 14:00:01,15.73113316,0.0002173,53.2168,43.2945,28.691,81.4388,0.00099191,0.00140421,0.0,0 STARLINK-4798,1 53858U 22114AS  22305.58334491  .00140421  00000-0  99191-3 0  9992,2 53858  53.2168  43.2945 0002173  28.6910  81.4388 15.73113316  7439,6728.142,91.538,351.469,348.545,0.0
53858.0,STARLINK-4798,PAYLOAD,2022-11-01 22:00:00,15.73264401,0.0002672,53.2141,41.6433,24.0838,174.9444,-0.00053266,-0.00074936,0.0,0 STARLINK-4798,1 53858U 22114AS  22305.91667824 -.00074936  00000-0 -53266-3 0  9990,2 53858  53.2141  41.6433 0002672  24.0838 174.9444 15.73264401  1300,6727.712,91.529,351.374,347.779,0.0
53858.0,STARLINK-4798,PAYLOAD,2022-11-02 06:00:00,15.73229134,0.0002499,53.2145,39.9923,21.9028,266.0965,-8.965600000000001e-05,-0.00013203,0.0,0 STARLINK-4798,1 53858U 22114AS  22306.25001157 -.00013203  00000-0 -89656-4 0  9992,2 53858  53.2145  39.9923 0002499  21.9028 266.0965 15.73229134  7538,6727.812,91.531,351.358,347.996,0.0
53858.0,STARLINK-4798,PAYLOAD,2022-11-02 14:00:01,15.73229634,0.0002762,53.2148,38.3456,18.1019,358.8518,-0.00023005,-0.0003283,0.0,0 STARLINK-4798,1 53858U 22114AS  22306.58334491 -.00032830  00000-0 -23005-3 0  9990,2 53858  53.2148  38.3456 0002762  18.1019 358.8518 15.73229634  1304,6727.811,91.531,351.534,347.81699999999995,0.0
53858.0,STARLINK-4798,PAYLOAD,2022-11-02 22:00:00,15.73237089,0.0002731,53.2138,36.694,16.262,89.6303,-0.00037868,-0.00053526,0.0,0 STARLINK-4798,1 53858U 22114AS  22306.91667824 -.00053526  00000-0 -37868-3 0  9993,2 53858  53.2138  36.6940 0002731  16.2620  89.6303 15.73237089  1309,6727.7890000000025,91.531,351.492,347.81699999999995,0.0
53858.0,STARLINK-4798,PAYLOAD,2022-11-03 08:00:01,15.73206878,0.0002557,53.2171,34.6331,32.4772,274.5084,-2.0706e-05,-3.528e-05,0.0,0 STARLINK-4798,1 53858U 22114AS  22307.33334491 -.00003528  00000-0 -20706-4 0  9992,2 53858  53.2171  34.6331 0002557  32.4772 274.5084 15.73206878  7705,6727.876,91.533,351.461,348.02,0.0
53858.0,STARLINK-4798,PAYLOAD,2022-11-03 14:00:01,15.73211597,0.0002846,53.2144,33.3957,15.4922,268.3321,0.00019809,0.00027287,0.0,0 STARLINK-4798,1 53858U 22114AS  22307.58334491  .00027287  00000-0  19809-3 0  9996,2 53858  53.2144  33.3957 0002846  15.4922 268.3321 15.73211597  7747,6727.861999999999,91.533,351.642,347.81199999999984,0.0
53858.0,STARLINK-4798,PAYLOAD,2022-11-03 22:00:00,15.73249888,0.0002801,53.2146,31.7449,12.4792,0.2994,-0.00057918,-0.00081317,0.0,0 STARLINK-4798,1 53858U 22114AS  22307.91667824 -.00081317  00000-0 -57918-3 0  9991,2 53858  53.2146  31.7449 0002801  12.4792   0.2994 15.73249888  1309,6727.753000000002,91.53,351.50199999999984,347.7340000000001,0.0
53858.0,STARLINK-4798,PAYLOAD,2022-11-04 06:00:00,15.73216808,0.0002692,53.2152,30.0943,13.457,88.2716,-0.00064462,-0.00090211,0.0,0 STARLINK-4798,1 53858U 22114AS  22308.25001157 -.00090211  00000-0 -64462-3 0  9995,2 53858  53.2152  30.0943 0002692  13.4570  88.2716 15.73216808  7850,6727.847,91.532,351.523,347.901,0.0
53858.0,STARLINK-4798,PAYLOAD,2022-11-04 14:00:01,15.73156676,0.0002883,53.2163,28.4481,12.8608,177.7791,-0.00065077,-0.00090829,0.0,0 STARLINK-4798,1 53858U 22114AS  22308.58334491 -.00090829  00000-0 -65077-3 0  9999,2 53858  53.2163  28.4481 0002883  12.8608 177.7791 15.73156676  1304,6728.019,91.536,351.8230000000001,347.944,0.0
53858.0,STARLINK-4798,PAYLOAD,2022-11-04 22:00:01,15.73232787,0.0002924,53.2143,26.7957,10.7222,269.0039,-0.00087975,-0.00122515,0.0,0 STARLINK-4798,1 53858U 22114AS  22308.91668981 -.00122515  00000-0 -87975-3 0  9999,2 53858  53.2143  26.7957 0002924  10.7222 269.0039 15.73232787  7951,6727.802,91.531,351.634,347.699,0.0
53858.0,STARLINK-4798,PAYLOAD,2022-11-05 14:00:01,15.73169181,0.0003131,53.2148,23.4984,10.1143,87.3497,0.00019143,0.00026298,0.0,0 STARLINK-4798,1 53858U 22114AS  22309.58335648  .00026298  00000-0  19143-3 0  9995,2 53858  53.2148  23.4984 0003131  10.1143  87.3497 15.73169181  1306,6727.983,91.535,351.955,347.742,0.0
53858.0,STARLINK-4798,PAYLOAD,2022-11-05 22:00:01,15.731991399999998,0.0003097,53.215,21.8475,8.7244,177.6422,-0.00042492,-0.0005985,0.0,0 STARLINK-4798,1 53858U 22114AS  22309.91668981 -.00059850  00000-0 -42492-3 0  9996,2 53858  53.2150  21.8475 0003097   8.7244 177.6422 15.73199140  1301,6727.898,91.533,351.846,347.67900000000014,0.0
